{"type": "FeatureCollection", "features": [ {"type": "Feature", "properties": {"norad_id": 66595, "name": "STARLINK-35711", "group": "last-30-days", "lat": -21.61842273222135, "lon": -41.526499276706126, "alt_km": 445.75867064420345, "timestamp": "2025-12-26T09:30:52.339915+00:00", "meta": {"OBJECT_NAME": "STARLINK-35711", "OBJECT_ID": "2025-270H", "EPOCH": "2025-12-26T00:00:02.000160", "MEAN_MOTION": 15.40699397, "ECCENTRICITY": 0.0001651, "INCLINATION": 43.0005, "RA_OF_ASC_NODE": 115.5904, "ARG_OF_PERICENTER": 279.7719, "MEAN_ANOMALY": 251.5447, "EPHEMERIS_TYPE": 0, "CLASSIFICATION_TYPE": "U", "NORAD_CAT_ID": 66595, "ELEMENT_SET_NO": 999, "REV_AT_EPOCH": 612, "BSTAR": -0.00013353, "MEAN_MOTION_DOT": -5.877e-05, "MEAN_MOTION_DDOT": 0}, "tle": {"line1": "1 66595U 25270H   25360.00002315 -.00005877  00000+0 -13353-3 0  9990", "line2": "2 66595  43.0005 115.5904 0001651 279.7719 251.5447 15.40699397  6125"}}, "geometry": {"type": "Point", "coordinates": [-41.526499276706126, -21.61842273222135]}}, {"type": "Feature", "properties": {"norad_id": 66596, "name": "STARLINK-35811", "group": "last-30-days", "lat": -42.82959045320884, "lon": 29.895244030672494, "alt_km": 446.5897593933705, "timestamp": "2025-12-26T09:30:52.339926+00:00", "meta": {"OBJECT_NAME": "STARLINK-35811", "OBJECT_ID": "2025-270J", "EPOCH": "2025-12-25T15:12:55.235232", "MEAN_MOTION": 15.40706261, "ECCENTRICITY": 8.16e-05, "INCLINATION": 42.9999, "RA_OF_ASC_NODE": 118.4238, "ARG_OF_PERICENTER": 242.406, "MEAN_ANOMALY": 117.6713, "EPHEMERIS_TYPE": 0, "CLASSIFICATION_TYPE": "U", "NORAD_CAT_ID": 66596, "ELEMENT_SET_NO": 999, "REV_AT_EPOCH": 644, "BSTAR": 0.0016636, "MEAN_MOTION_DOT": 0.00069844, "MEAN_MOTION_DDOT": 0}, "tle": {"line1": "1 66596U 25270J   25359.63397263  .00069844  00000+0  16636-2 0  9995", "line2": "2 66596  42.9999 118.4238 0000816 242.4060 117.6713 15.40706261  6448"}}, "geometry": {"type": "Point", "coordinates": [29.895244030672494, -42.82959045320884]}}, {"type": "Feature", "properties": {"norad_id": 66597, "name": "STARLINK-35820", "group": "last-30-days", "lat": -23.630725647502242, "lon": 85.90620205148531, "alt_km": 444.9233758041437, "timestamp": "2025-12-26T09:30:52.339936+00:00", "meta": {"OBJECT_NAME": "STARLINK-35820", "OBJECT_ID": "2025-270K", "EPOCH": "2025-12-25T16:33:22.358304", "MEAN_MOTION": 15.40716379, "ECCENTRICITY": 0.00019708, "INCLINATION": 43.0011, "RA_OF_ASC_NODE": 117.9816, "ARG_OF_PERICENTER": 279.5026, "MEAN_ANOMALY": 80.5608, "EPHEMERIS_TYPE": 0, "CLASSIFICATION_TYPE": "U", "NORAD_CAT_ID": 66597, "ELEMENT_SET_NO": 999, "REV_AT_EPOCH": 645, "BSTAR": 0.0017144485, "MEAN_MOTION_DOT": 0.00072033, "MEAN_MOTION_DDOT": 0}, "tle": {"line1": "1 66597U 25270K   25359.68984211  .00072033  00000+0  17144-2 0  9995", "line2": "2 66597  43.0011 117.9816 0001970 279.5026  80.5608 15.40716379  6450"}}, "geometry": {"type": "Point", "coordinates": [85.90620205148531, -23.630725647502242]}}, {"type": "Feature", "properties": {"norad_id": 66598, "name": "STARLINK-35981", "group": "last-30-days", "lat": 32.09035869526394, "lon": 155.9909442647156, "alt_km": 439.044686827634, "timestamp": "2025-12-26T09:30:52.339946+00:00", "meta": {"OBJECT_NAME": "STARLINK-35981", "OBJECT_ID": "2025-270L", "EPOCH": "2025-12-25T14:37:26.403168", "MEAN_MOTION": 15.4075353, "ECCENTRICITY": 0.0001255, "INCLINATION": 42.9985, "RA_OF_ASC_NODE": 118.2329, "ARG_OF_PERICENTER": 277.5792, "MEAN_ANOMALY": 82.4921, "EPHEMERIS_TYPE": 0, "CLASSIFICATION_TYPE": "U", "NORAD_CAT_ID": 66598, "ELEMENT_SET_NO": 999, "REV_AT_EPOCH": 618, "BSTAR": 0.0013375, "MEAN_MOTION_DOT": 0.00056078, "MEAN_MOTION_DDOT": 0}, "tle": {"line1": "1 66598U 25270L   25359.60933337  .00056078  00000+0  13375-2 0  9994", "line2": "2 66598  42.9985 118.2329 0001255 277.5792  82.4921 15.40753530  6185"}}, "geometry": {"type": "Point", "coordinates": [155.9909442647156, 32.09035869526394]}}, {"type": "Feature", "properties": {"norad_id": 66599, "name": "STARLINK-35930", "group": "last-30-days", "lat": -5.340748464885479, "lon": -60.876607512797904, "alt_km": 444.3421696864143, "timestamp": "2025-12-26T09:30:52.339956+00:00", "meta": {"OBJECT_NAME": "STARLINK-35930", "OBJECT_ID": "2025-270M", "EPOCH": "2025-12-26T00:00:02.000160", "MEAN_MOTION": 15.40693318, "ECCENTRICITY": 0.0001539, "INCLINATION": 43.0004, "RA_OF_ASC_NODE": 115.6507, "ARG_OF_PERICENTER": 265.9181, "MEAN_ANOMALY": 240.53, "EPHEMERIS_TYPE": 0, "CLASSIFICATION_TYPE": "U", "NORAD_CAT_ID": 66599, "ELEMENT_SET_NO": 999, "REV_AT_EPOCH": 603, "BSTAR": -6.8888e-05, "MEAN_MOTION_DOT": -3.179e-05, "MEAN_MOTION_DDOT": 0}, "tle": {"line1": "1 66599U 25270M   25360.00002315 -.00003179  00000+0 -68888-4 0  9991", "line2": "2 66599  43.0004 115.6507 0001539 265.9181 240.5300 15.40693318  6036"}}, "geometry": {"type": "Point", "coordinates": [-60.876607512797904, -5.340748464885479]}}, {"type": "Feature", "properties": {"norad_id": 66600, "name": "STARLINK-35980", "group": "last-30-days", "lat": 42.02628657864601, "lon": -141.69088919213175, "alt_km": 437.0678663566787, "timestamp": "2025-12-26T09:30:52.339967+00:00", "meta": {"OBJECT_NAME": "STARLINK-35980", "OBJECT_ID": "2025-270N", "EPOCH": "2025-12-25T17:31:15.223584", "MEAN_MOTION": 15.4074017, "ECCENTRICITY": 0.00012039, "INCLINATION": 43.0006, "RA_OF_ASC_NODE": 117.4177, "ARG_OF_PERICENTER": 6.8495, "MEAN_ANOMALY": 353.2378, "EPHEMERIS_TYPE": 0, "CLASSIFICATION_TYPE": "U", "NORAD_CAT_ID": 66600, "ELEMENT_SET_NO": 999, "REV_AT_EPOCH": 625, "BSTAR": 0.0010972155, "MEAN_MOTION_DOT": 0.00045867, "MEAN_MOTION_DDOT": 0}, "tle": {"line1": "1 66600U 25270N   25359.73003731  .00045867  00000+0  10972-2 0  9992", "line2": "2 66600  43.0006 117.4177 0001203   6.8495 353.2378 15.40740170  6252"}}, "geometry": {"type": "Point", "coordinates": [-141.69088919213175, 42.02628657864601]}}, {"type": "Feature", "properties": {"norad_id": 66601, "name": "STARLINK-35978", "group": "last-30-days", "lat": 0.8678651922907519, "lon": 114.74883037439601, "alt_km": 443.1430468013086, "timestamp": "2025-12-26T09:30:52.339977+00:00", "meta": {"OBJECT_NAME": "STARLINK-35978", "OBJECT_ID": "2025-270P", "EPOCH": "2025-12-25T14:50:20.458176", "MEAN_MOTION": 15.40695695, "ECCENTRICITY": 0.0001748, "INCLINATION": 43.0008, "RA_OF_ASC_NODE": 118.3029, "ARG_OF_PERICENTER": 278.7511, "MEAN_ANOMALY": 81.3147, "EPHEMERIS_TYPE": 0, "CLASSIFICATION_TYPE": "U", "NORAD_CAT_ID": 66601, "ELEMENT_SET_NO": 999, "REV_AT_EPOCH": 617, "BSTAR": 0.0016425, "MEAN_MOTION_DOT": 0.00068921, "MEAN_MOTION_DDOT": 0}, "tle": {"line1": "1 66601U 25270P   25359.61829234  .00068921  00000+0  16425-2 0  9999", "line2": "2 66601  43.0008 118.3029 0001748 278.7511  81.3147 15.40695695  6179"}}, "geometry": {"type": "Point", "coordinates": [114.74883037439601, 0.8678651922907519]}}, {"type": "Feature", "properties": {"norad_id": 66602, "name": "STARLINK-36050", "group": "last-30-days", "lat": -40.77961562148402, "lon": 46.24066943892482, "alt_km": 446.0099922600193, "timestamp": "2025-12-26T09:30:52.339987+00:00", "meta": {"OBJECT_NAME": "STARLINK-36050", "OBJECT_ID": "2025-270Q", "EPOCH": "2025-12-25T16:43:02.809920", "MEAN_MOTION": 15.40700977, "ECCENTRICITY": 0.0001645, "INCLINATION": 43.0015, "RA_OF_ASC_NODE": 118.0318, "ARG_OF_PERICENTER": 265.3837, "MEAN_ANOMALY": 94.6831, "EPHEMERIS_TYPE": 0, "CLASSIFICATION_TYPE": "U", "NORAD_CAT_ID": 66602, "ELEMENT_SET_NO": 999, "REV_AT_EPOCH": 624, "BSTAR": 0.0014070321, "MEAN_MOTION_DOT": 0.00058929, "MEAN_MOTION_DDOT": 0}, "tle": {"line1": "1 66602U 25270Q   25359.69656030  .00058929  00000+0  14070-2 0  9991", "line2": "2 66602  43.0015 118.0318 0001645 265.3837  94.6831 15.40700977  6240"}}, "geometry": {"type": "Point", "coordinates": [46.24066943892482, -40.77961562148402]}}, {"type": "Feature", "properties": {"norad_id": 66603, "name": "STARLINK-36048", "group": "last-30-days", "lat": 25.13869586465592, "lon": 143.96404390035113, "alt_km": 440.2902381850763, "timestamp": "2025-12-26T09:30:52.339997+00:00", "meta": {"OBJECT_NAME": "STARLINK-36048", "OBJECT_ID": "2025-270R", "EPOCH": "2025-12-25T17:47:22.397280", "MEAN_MOTION": 15.40700438, "ECCENTRICITY": 0.0001458, "INCLINATION": 42.9995, "RA_OF_ASC_NODE": 117.5035, "ARG_OF_PERICENTER": 277.8651, "MEAN_ANOMALY": 82.204, "EPHEMERIS_TYPE": 0, "CLASSIFICATION_TYPE": "U", "NORAD_CAT_ID": 66603, "ELEMENT_SET_NO": 999, "REV_AT_EPOCH": 625, "BSTAR": 0.0012828673, "MEAN_MOTION_DOT": 0.00053664, "MEAN_MOTION_DDOT": 0}, "tle": {"line1": "1 66603U 25270R   25359.74123145  .00053664  00000+0  12829-2 0  9995", "line2": "2 66603  42.9995 117.5035 0001458 277.8651  82.2040 15.40700438  6258"}}, "geometry": {"type": "Point", "coordinates": [143.96404390035113, 25.13869586465592]}}, {"type": "Feature", "properties": {"norad_id": 66604, "name": "STARLINK-35977", "group": "last-30-days", "lat": 37.58362293835419, "lon": 169.34713435477724, "alt_km": 438.566009481734, "timestamp": "2025-12-26T09:30:52.340007+00:00", "meta": {"OBJECT_NAME": "STARLINK-35977", "OBJECT_ID": "2025-270S", "EPOCH": "2025-12-25T14:34:12.556128", "MEAN_MOTION": 15.40692827, "ECCENTRICITY": 0.0001025, "INCLINATION": 43.0004, "RA_OF_ASC_NODE": 118.2151, "ARG_OF_PERICENTER": 242.851, "MEAN_ANOMALY": 117.2242, "EPHEMERIS_TYPE": 0, "CLASSIFICATION_TYPE": "U", "NORAD_CAT_ID": 66604, "ELEMENT_SET_NO": 999, "REV_AT_EPOCH": 633, "BSTAR": 0.0010442, "MEAN_MOTION_DOT": 0.00043554, "MEAN_MOTION_DDOT": 0}, "tle": {"line1": "1 66604U 25270S   25359.60708977  .00043554  00000+0  10442-2 0  9999", "line2": "2 66604  43.0004 118.2151 0001025 242.8510 117.2242 15.40692827  6339"}}, "geometry": {"type": "Point", "coordinates": [169.34713435477724, 37.58362293835419]}}]}